[
  {
    "OBJECT_NAME": "STARLINK-1443",
    "OBJECT_ID": "20035D",
    "EPOCH": "2025-11-11T04:40:16.862304",
    "MEAN_MOTION": 15.06407962,
    "ECCENTRICITY": 0.0001667,
    "INCLINATION": 53.0539,
    "RA_OF_ASC_NODE": 238.5653,
    "ARG_OF_PERICENTER": 92.7263,
    "MEAN_ANOMALY": 267.3916,
    "EPHEMERIS_TYPE": 0,
    "CLASSIFICATION_TYPE": "U",
    "NORAD_CAT_ID": 45660,
    "ELEMENT_SET_NO": 999,
    "REV_AT_EPOCH": 30087,
    "BSTAR": 0.00041068,
    "MEAN_MOTION_DOT": 5.842e-05,
    "MEAN_MOTION_DDOT": 0.0,
    "TLE_LINE1": "1 45660U 20035D   25315.19463961  .00005842  00000+0  41068-3 0  9996",
    "TLE_LINE2": "2 45660  53.0539 238.5653 0001667  92.7263 267.3916 15.06407962300871",
    "COMMENT": "Grouped by shell and plane from TLE"
  },
  {
    "OBJECT_NAME": "STARLINK-1448",
    "OBJECT_ID": "20035J",
    "EPOCH": "2025-11-11T04:45:35.499456",
    "MEAN_MOTION": 15.06397686,
    "ECCENTRICITY": 0.0001579,
    "INCLINATION": 53.0536,
    "RA_OF_ASC_NODE": 238.5491,
    "ARG_OF_PERICENTER": 65.4717,
    "MEAN_ANOMALY": 294.6437,
    "EPHEMERIS_TYPE": 0,
    "CLASSIFICATION_TYPE": "U",
    "NORAD_CAT_ID": 45665,
    "ELEMENT_SET_NO": 999,
    "REV_AT_EPOCH": 30086,
    "BSTAR": 0.00016984,
    "MEAN_MOTION_DOT": 2.249e-05,
    "MEAN_MOTION_DDOT": 0.0,
    "TLE_LINE1": "1 45665U 20035J   25315.19832754  .00002249  00000+0  16984-3 0  9998",
    "TLE_LINE2": "2 45665  53.0536 238.5491 0001579  65.4717 294.6437 15.06397686300867",
    "COMMENT": "Grouped by shell and plane from TLE"
  },
  {
    "OBJECT_NAME": "STARLINK-1451",
    "OBJECT_ID": "20035M",
    "EPOCH": "2025-11-11T04:50:55.569984",
    "MEAN_MOTION": 15.06436803,
    "ECCENTRICITY": 0.0001863,
    "INCLINATION": 53.0537,
    "RA_OF_ASC_NODE": 238.8469,
    "ARG_OF_PERICENTER": 92.406,
    "MEAN_ANOMALY": 267.7143,
    "EPHEMERIS_TYPE": 0,
    "CLASSIFICATION_TYPE": "U",
    "NORAD_CAT_ID": 45668,
    "ELEMENT_SET_NO": 999,
    "REV_AT_EPOCH": 30087,
    "BSTAR": 0.0014353,
    "MEAN_MOTION_DOT": 0.00021183,
    "MEAN_MOTION_DDOT": 0.0,
    "TLE_LINE1": "1 45668U 20035M   25315.20203206  .00021183  00000+0  14353-2 0  9992",
    "TLE_LINE2": "2 45668  53.0537 238.8469 0001863  92.4060 267.7143 15.06436803300877",
    "COMMENT": "Grouped by shell and plane from TLE"
  },
  {
    "OBJECT_NAME": "STARLINK-1454",
    "OBJECT_ID": "20035Q",
    "EPOCH": "2025-11-11T03:47:11.896512",
    "MEAN_MOTION": 15.06392531,
    "ECCENTRICITY": 0.0001161,
    "INCLINATION": 53.0543,
    "RA_OF_ASC_NODE": 238.7316,
    "ARG_OF_PERICENTER": 78.5259,
    "MEAN_ANOMALY": 281.5861,
    "EPHEMERIS_TYPE": 0,
    "CLASSIFICATION_TYPE": "U",
    "NORAD_CAT_ID": 45671,
    "ELEMENT_SET_NO": 999,
    "REV_AT_EPOCH": 30085,
    "BSTAR": 0.00016334000000000002,
    "MEAN_MOTION_DOT": 2.152e-05,
    "MEAN_MOTION_DDOT": 0.0,
    "TLE_LINE1": "1 45671U 20035Q   25315.15777658  .00002152  00000+0  16334-3 0  9994",
    "TLE_LINE2": "2 45671  53.0543 238.7316 0001161  78.5259 281.5861 15.06392531300852",
    "COMMENT": "Grouped by shell and plane from TLE"
  },
  {
    "OBJECT_NAME": "STARLINK-1456",
    "OBJECT_ID": "20035S",
    "EPOCH": "2025-11-11T05:43:57.799488",
    "MEAN_MOTION": 15.06405076,
    "ECCENTRICITY": 0.0001381,
    "INCLINATION": 53.0541,
    "RA_OF_ASC_NODE": 238.3684,
    "ARG_OF_PERICENTER": 93.1712,
    "MEAN_ANOMALY": 266.9435,
    "EPHEMERIS_TYPE": 0,
    "CLASSIFICATION_TYPE": "U",
    "NORAD_CAT_ID": 45673,
    "ELEMENT_SET_NO": 999,
    "REV_AT_EPOCH": 30088,
    "BSTAR": 0.00036807,
    "MEAN_MOTION_DOT": 5.206e-05,
    "MEAN_MOTION_DDOT": 0.0,
    "TLE_LINE1": "1 45673U 20035S   25315.23886342  .00005206  00000+0  36807-3 0  9996",
    "TLE_LINE2": "2 45673  53.0541 238.3684 0001381  93.1712 266.9435 15.06405076300883",
    "COMMENT": "Grouped by shell and plane from TLE"
  },
  {
    "OBJECT_NAME": "STARLINK-1458",
    "OBJECT_ID": "20035U",
    "EPOCH": "2025-11-11T04:03:06.744384",
    "MEAN_MOTION": 15.06383449,
    "ECCENTRICITY": 0.0001962,
    "INCLINATION": 53.0546,
    "RA_OF_ASC_NODE": 238.6835,
    "ARG_OF_PERICENTER": 95.9596,
    "MEAN_ANOMALY": 264.1617,
    "EPHEMERIS_TYPE": 0,
    "CLASSIFICATION_TYPE": "U",
    "NORAD_CAT_ID": 45675,
    "ELEMENT_SET_NO": 999,
    "REV_AT_EPOCH": 30083,
    "BSTAR": 0.0,
    "MEAN_MOTION_DOT": -5.215e-05,
    "MEAN_MOTION_DDOT": 0.0,
    "TLE_LINE1": "1 45675U 20035U   25315.16882806 -.00005215  00000+0 -33160-3 0  9992",
    "TLE_LINE2": "2 45675  53.0546 238.6835 0001962  95.9596 264.1617 15.06383449300832",
    "COMMENT": "Grouped by shell and plane from TLE"
  },
  {
    "OBJECT_NAME": "STARLINK-1460",
    "OBJECT_ID": "20035V",
    "EPOCH": "2025-11-11T04:56:12.033312",
    "MEAN_MOTION": 15.06399752,
    "ECCENTRICITY": 0.0001476,
    "INCLINATION": 53.0543,
    "RA_OF_ASC_NODE": 238.5118,
    "ARG_OF_PERICENTER": 105.1019,
    "MEAN_ANOMALY": 255.0133,
    "EPHEMERIS_TYPE": 0,
    "CLASSIFICATION_TYPE": "U",
    "NORAD_CAT_ID": 45676,
    "ELEMENT_SET_NO": 999,
    "REV_AT_EPOCH": 30083,
    "BSTAR": 0.00027477000000000003,
    "MEAN_MOTION_DOT": 3.814e-05,
    "MEAN_MOTION_DDOT": 0.0,
    "TLE_LINE1": "1 45676U 20035V   25315.20569483  .00003814  00000+0  27477-3 0  9996",
    "TLE_LINE2": "2 45676  53.0543 238.5118 0001476 105.1019 255.0133 15.06399752300833",
    "COMMENT": "Grouped by shell and plane from TLE"
  },
  {
    "OBJECT_NAME": "STARLINK-1392",
    "OBJECT_ID": "20035W",
    "EPOCH": "2025-11-11T02:01:02.779680",
    "MEAN_MOTION": 15.0640221,
    "ECCENTRICITY": 0.0001418,
    "INCLINATION": 53.0539,
    "RA_OF_ASC_NODE": 239.063,
    "ARG_OF_PERICENTER": 79.116,
    "MEAN_ANOMALY": 280.9988,
    "EPHEMERIS_TYPE": 0,
    "CLASSIFICATION_TYPE": "U",
    "NORAD_CAT_ID": 45677,
    "ELEMENT_SET_NO": 999,
    "REV_AT_EPOCH": 30085,
    "BSTAR": 0.00044798,
    "MEAN_MOTION_DOT": 6.398e-05,
    "MEAN_MOTION_DDOT": 0.0,
    "TLE_LINE1": "1 45677U 20035W   25315.08405995  .00006398  00000+0  44798-3 0  9995",
    "TLE_LINE2": "2 45677  53.0539 239.0630 0001418  79.1160 280.9988 15.06402210300858",
    "COMMENT": "Grouped by shell and plane from TLE"
  },
  {
    "OBJECT_NAME": "STARLINK-2034",
    "OBJECT_ID": "21005D",
    "EPOCH": "2025-11-11T02:30:54.449568",
    "MEAN_MOTION": 15.06409789,
    "ECCENTRICITY": 0.0001634,
    "INCLINATION": 53.0534,
    "RA_OF_ASC_NODE": 233.9685,
    "ARG_OF_PERICENTER": 76.5065,
    "MEAN_ANOMALY": 283.6106,
    "EPHEMERIS_TYPE": 0,
    "CLASSIFICATION_TYPE": "U",
    "NORAD_CAT_ID": 47352,
    "ELEMENT_SET_NO": 999,
    "REV_AT_EPOCH": 26516,
    "BSTAR": 0.0008026,
    "MEAN_MOTION_DOT": 0.00011696,
    "MEAN_MOTION_DDOT": 0.0,
    "TLE_LINE1": "1 47352U 21005D   25315.10479687  .00011696  00000+0  80260-3 0  9998",
    "TLE_LINE2": "2 47352  53.0534 233.9685 0001634  76.5065 283.6106 15.06409789265167",
    "COMMENT": "Grouped by shell and plane from TLE"
  },
  {
    "OBJECT_NAME": "STARLINK-2050",
    "OBJECT_ID": "21005J",
    "EPOCH": "2025-11-11T04:33:03.029760",
    "MEAN_MOTION": 15.06400636,
    "ECCENTRICITY": 0.0001707,
    "INCLINATION": 53.054,
    "RA_OF_ASC_NODE": 234.0104,
    "ARG_OF_PERICENTER": 105.5213,
    "MEAN_ANOMALY": 254.5965,
    "EPHEMERIS_TYPE": 0,
    "CLASSIFICATION_TYPE": "U",
    "NORAD_CAT_ID": 47357,
    "ELEMENT_SET_NO": 999,
    "REV_AT_EPOCH": 26517,
    "BSTAR": 0.00018308,
    "MEAN_MOTION_DOT": 2.447e-05,
    "MEAN_MOTION_DDOT": 0.0,
    "TLE_LINE1": "1 47357U 21005J   25315.18961840  .00002447  00000+0  18308-3 0  9996",
    "TLE_LINE2": "2 47357  53.0540 234.0104 0001707 105.5213 254.5965 15.06400636265179",
    "COMMENT": "Grouped by shell and plane from TLE"
  },
  {
    "OBJECT_NAME": "STARLINK-2076",
    "OBJECT_ID": "21005P",
    "EPOCH": "2025-11-11T04:54:12.644928",
    "MEAN_MOTION": 15.06413038,
    "ECCENTRICITY": 0.0001356,
    "INCLINATION": 53.0538,
    "RA_OF_ASC_NODE": 233.5188,
    "ARG_OF_PERICENTER": 99.5817,
    "MEAN_ANOMALY": 260.5325,
    "EPHEMERIS_TYPE": 0,
    "CLASSIFICATION_TYPE": "U",
    "NORAD_CAT_ID": 47362,
    "ELEMENT_SET_NO": 999,
    "REV_AT_EPOCH": 26518,
    "BSTAR": 0.0010632999999999999,
    "MEAN_MOTION_DOT": 0.00015597,
    "MEAN_MOTION_DDOT": 0.0,
    "TLE_LINE1": "1 47362U 21005P   25315.20431302  .00015597  00000+0  10633-2 0  9992",
    "TLE_LINE2": "2 47362  53.0538 233.5188 0001356  99.5817 260.5325 15.06413038265188",
    "COMMENT": "Grouped by shell and plane from TLE"
  },
  {
    "OBJECT_NAME": "STARLINK-2081",
    "OBJECT_ID": "21005T",
    "EPOCH": "2025-11-11T04:01:07.886496",
    "MEAN_MOTION": 15.06409953,
    "ECCENTRICITY": 0.0001741,
    "INCLINATION": 53.0528,
    "RA_OF_ASC_NODE": 233.6865,
    "ARG_OF_PERICENTER": 97.0581,
    "MEAN_ANOMALY": 263.0606,
    "EPHEMERIS_TYPE": 0,
    "CLASSIFICATION_TYPE": "U",
    "NORAD_CAT_ID": 47366,
    "ELEMENT_SET_NO": 999,
    "REV_AT_EPOCH": 26517,
    "BSTAR": 0.0005884200000000001,
    "MEAN_MOTION_DOT": 8.496e-05,
    "MEAN_MOTION_DDOT": 0.0,
    "TLE_LINE1": "1 47366U 21005T   25315.16745239  .00008496  00000+0  58842-3 0  9993",
    "TLE_LINE2": "2 47366  53.0528 233.6865 0001741  97.0581 263.0606 15.06409953265173",
    "COMMENT": "Grouped by shell and plane from TLE"
  },
  {
    "OBJECT_NAME": "STARLINK-2082",
    "OBJECT_ID": "21005U",
    "EPOCH": "2025-11-11T04:38:17.219040",
    "MEAN_MOTION": 15.06401343,
    "ECCENTRICITY": 0.0001294,
    "INCLINATION": 53.0539,
    "RA_OF_ASC_NODE": 233.5698,
    "ARG_OF_PERICENTER": 85.266,
    "MEAN_ANOMALY": 274.8477,
    "EPHEMERIS_TYPE": 0,
    "CLASSIFICATION_TYPE": "U",
    "NORAD_CAT_ID": 47367,
    "ELEMENT_SET_NO": 999,
    "REV_AT_EPOCH": 26518,
    "BSTAR": 0.0010772,
    "MEAN_MOTION_DOT": 0.000158,
    "MEAN_MOTION_DDOT": 0.0,
    "TLE_LINE1": "1 47367U 21005U   25315.19325485  .00015800  00000+0  10772-2 0  9990",
    "TLE_LINE2": "2 47367  53.0539 233.5698 0001294  85.2660 274.8477 15.06401343265181",
    "COMMENT": "Grouped by shell and plane from TLE"
  }
]